"Uranus" "Sol" {
  Texture "uranus.*"
  Color [ 0.75 0.85 1 ]
  HazeColor [ 0.5 0.8 1 ]
  HazeDensity 0.2
  Radius 25559
  Oblateness 0.0229
  CustomOrbit "vsop87-uranus"
  Atmosphere {
    Height 130
    Lower [ 0.75 0.85 1 ]
    Upper [ 0.5 0.8 0.9 ]
    Sky [ 0.6 0.7 0.7 ]
  }
  BodyFrame {
    EclipticJ2000 { }
  }
  UniformRotation {
    Period 17.24
    Inclination 97.722
    AscendingNode 167.647
    MeridianAngle 331.13
  }
  Albedo 0.66
  Rings {
    Inner 41837
    Outer 51179
    Texture "uranus-rings.png"
  }
}

"Miranda:Uranus V" "Sol/Uranus" {
  Texture "miranda.*"
  Radius 235.8
  CustomOrbit "miranda"
  BodyFrame {
    EquatorJ2000 { }
  }
  CustomRotation "iau-miranda"
  Albedo 0.32
}

AltSurface "limit of knowledge" "Sol/Uranus/Miranda" {
  Texture "miranda.*"
  OverlayTexture "miranda-lok-mask.png"
}

"Ariel:Uranus I" "Sol/Uranus" {
  Texture "ariel.*"
  Radius 578.9
  CustomOrbit "ariel"
  BodyFrame {
    EquatorJ2000 { }
  }
  CustomRotation "iau-ariel"
  Albedo 0.39
}

AltSurface "limit of knowledge" "Sol/Uranus/Ariel" {
  Texture "ariel.*"
  OverlayTexture "ariel-lok-mask.png"
}

"Umbriel:Uranus II" "Sol/Uranus" {
  Texture "umbriel.*"
  Radius 584.7
  CustomOrbit "umbriel"
  BodyFrame {
    EquatorJ2000 { }
  }
  CustomRotation "iau-umbriel"
  Albedo 0.21
}

AltSurface "limit of knowledge" "Sol/Uranus/Umbriel" {
  Texture "umbriel.*"
  OverlayTexture "umbriel-lok-mask.png"
}

"Titania:Uranus III" "Sol/Uranus" {
  Texture "titania.*"
  Radius 788.9
  CustomOrbit "titania"
  BodyFrame {
    EquatorJ2000 { }
  }
  CustomRotation "iau-titania"
  Albedo 0.27
}

AltSurface "limit of knowledge" "Sol/Uranus/Titania" {
  Texture "titania.*"
  OverlayTexture "titania-lok-mask.png"
}

"Oberon:Uranus IV" "Sol/Uranus" {
  Texture "oberon.*"
  Radius 761.4
  CustomOrbit "oberon"
  BodyFrame {
    EquatorJ2000 { }
  }
  CustomRotation "iau-oberon"
  Albedo 0.23
}

AltSurface "limit of knowledge" "Sol/Uranus/Oberon" {
  Texture "oberon.*"
  OverlayTexture "oberon-lok-mask.png"
}

"Neptune" "Sol" {
  Texture "neptune.*"
  Color [ 0.75 0.75 1 ]
  HazeColor [ 0.6 1 0.75 ]
  HazeDensity 0.35
  Radius 24766
  Oblateness 0.017
  CustomOrbit "vsop87-neptune"
  Atmosphere {
    Height 130
    Lower [ 0.6 0.65 1 ]
    Upper [ 0.5 0.55 0.9 ]
    Sky [ 0.5 0.7 0.9 ]
  }
  BodyFrame {
    EclipticJ2000 { }
  }
  UniformRotation {
    Period 16.11
    Inclination 28.03
    AscendingNode 49.24
    MeridianAngle 228.66
  }
  Albedo 0.62
  Rings {
    Inner 53150
    Outer 62947
    Texture "neptune-rings.png"
  }
}

"Larissa:Neptune VII:1989 N 2" "Sol/Neptune" {
  Texture "asteroid.jpg"
  Mesh "larissa.cmod"
  Radius 100
  MeshCenter [ 4.564 -0.126 0.302 ]
  EllipticalOrbit {
    Period 0.554654
    SemiMajorAxis 73548
    Eccentricity 0.0014
    Inclination 0.744
    AscendingNode 324.857
    ArgOfPericenter 215.004
    MeanAnomaly 157.543
  }
  BodyFrame {
    EquatorJ2000 { }
  }
  UniformRotation {
    Inclination 46.59
    AscendingNode 29.36
    MeridianAngle 179.41
  }
  Albedo 0.056
}

"Proteus:Neptune VIII:1989 N 1" "Sol/Neptune" {
  Mesh "proteus.cmod"
  Texture "proteus.*"
  Radius 219
  MeshCenter [ -4.146 -0.022 5.153 ]
  EllipticalOrbit {
    Epoch 2450085.5
    Period 1.122315
    SemiMajorAxis 117647
    Eccentricity 0.0005
    Inclination 1.09
    AscendingNode 330.943
    ArgOfPericenter 267.245999
    MeanAnomaly 213.916
  }
  BodyFrame {
    EquatorJ2000 { }
  }
  UniformRotation {
    Inclination 47.09
    AscendingNode 29.27
    MeridianAngle 93.38
  }
  Albedo 0.061
}

"Triton:Neptune I" "Sol/Neptune" {
  Texture "triton.*"
  Radius 1353.4
  Atmosphere {
    Height 1
    Lower [ 0.5 0.5 0.5 ]
    Upper [ 0.5 0.5 0.5 ]
    Sky [ 0 0 0 ]
  }
  EllipticalOrbit {
    Epoch 2447763.5
    Period 5.876854
    SemiMajorAxis 354765.286
    Eccentricity 0.000022
    Inclination 156.82624
    AscendingNode 147.899288
    ArgOfPericenter 293.0924
    MeanAnomaly 315.726316
  }
  BodyFrame {
    EquatorJ2000 { }
  }
  UniformRotation {
    Epoch 2447763.5
    Inclination 110.44
    AscendingNode 206.17
    MeridianAngle 77.41
  }
  Albedo 0.756
}

AltSurface "limit of knowledge" "Sol/Neptune/Triton" {
  Texture "triton.*"
  OverlayTexture "triton-lok-mask.png"
}

"Nereid:Neptune II" "Sol/Neptune" {
  Mesh "asteroid.cms"
  Texture "asteroid.jpg"
  Radius 170
  EllipticalOrbit {
    Epoch 2447763.5
    Period 360.13619
    SemiMajorAxis 5513400
    Eccentricity 0.7512
    Inclination 28.385
    AscendingNode 190.678
    ArgOfPericenter 17.69
    MeanAnomaly 36.056
  }
  UniformRotation {
    Period 11.52
  }
  Albedo 0.155
}

ReferencePoint "Pluto-Charon" "Sol" {
  CustomOrbit "pluto"
  Visible true
  Clickable true
}

"Pluto:134340 Pluto" "Sol" {
  Class "dwarfplanet"
  Texture "pluto-lok.*"
  SpecularTexture "pluto-lok-spec.*"
  SpecularColor [ 0.135 0.12 0.08 ]
  SpecularPower 9.5
  Radius 1151
  OrbitFrame {
    EquatorJ2000 {
      Center "Sol/Pluto-Charon"
    }
  }
  BodyFrame {
    EclipticJ2000 {
      Center "Sol/Pluto-Charon"
    }
  }
  EllipticalOrbit {
    Epoch 2452600.5
    Period 6.387206
    SemiMajorAxis 2043.1
    Eccentricity 0.003484
    Inclination 96.168
    AscendingNode 223.0539
    ArgOfPericenter 337.92
    MeanLongitude 77.96
  }
  UniformRotation {
    Period 153.292944
    Inclination 115.6
    AscendingNode 228.34
    MeridianAngle 320.75
  }
  Albedo 0.55
}

AltSurface "limit of knowledge" "Sol/Pluto" {
  Texture "pluto-lok.*"
  SpecularTexture "pluto-lok-spec.*"
  SpecularColor [ 0.135 0.12 0.08 ]
  SpecularPower 9.5
}

"Charon:Pluto I:134340 Pluto I:1978 P 1" "Sol/Pluto" {
  Texture "charon-lok.*"
  SpecularTexture "charon-lok-spec.*"
  SpecularColor [ 0.135 0.12 0.08 ]
  SpecularPower 9.5
  Radius 593
  InfoURL "http://www.nineplanets.org/pluto.html#Charon"
  OrbitFrame {
    EquatorJ2000 {
      Center "Sol/Pluto-Charon"
    }
  }
  BodyFrame {
    EclipticJ2000 {
      Center "Sol/Pluto-Charon"
    }
  }
  EllipticalOrbit {
    Epoch 2452600.5
    Period 6.387206
    SemiMajorAxis 17527.4
    Eccentricity 0.003484
    Inclination 96.168
    AscendingNode 223.0539
    ArgOfPericenter 157.92
    MeanLongitude 257.959999
  }
  UniformRotation {
    Period 153.292944
    Inclination 115.9
    AscendingNode 227.3
    MeridianAngle 140.4
  }
  Albedo 0.35
}

AltSurface "limit of knowledge" "Sol/Pluto/Charon" {
  Texture "charon-lok.*"
  SpecularTexture "charon-lok-spec.*"
  SpecularColor [ 0.135 0.12 0.08 ]
  SpecularPower 9.5
}
